[
  {
    "OBJECT_NAME": "STARLINK-31316",
    "OBJECT_ID": "24041S",
    "EPOCH": "2025-11-11T03:32:56.893344",
    "MEAN_MOTION": 15.27601726,
    "ECCENTRICITY": 5.71e-05,
    "INCLINATION": 42.9982,
    "RA_OF_ASC_NODE": 213.3418,
    "ARG_OF_PERICENTER": 267.1631,
    "MEAN_ANOMALY": 92.9155,
    "EPHEMERIS_TYPE": 0,
    "CLASSIFICATION_TYPE": "U",
    "NORAD_CAT_ID": 59090,
    "ELEMENT_SET_NO": 999,
    "REV_AT_EPOCH": 9662,
    "BSTAR": 0.00043564000000000005,
    "MEAN_MOTION_DOT": 0.00011753,
    "MEAN_MOTION_DDOT": 0.0,
    "TLE_LINE1": "1 59090U 24041S   25315.14788071  .00011753  00000+0  43564-3 0  9997",
    "TLE_LINE2": "2 59090  42.9982 213.3418 0000571 267.1631  92.9155 15.27601726 96621",
    "COMMENT": "Grouped by shell and plane from TLE"
  },
  {
    "OBJECT_NAME": "STARLINK-31739",
    "OBJECT_ID": "24091P",
    "EPOCH": "2025-11-10T23:58:19.153056",
    "MEAN_MOTION": 15.3019765,
    "ECCENTRICITY": 0.0001447,
    "INCLINATION": 53.1598,
    "RA_OF_ASC_NODE": 215.2681,
    "ARG_OF_PERICENTER": 93.0677,
    "MEAN_ANOMALY": 267.0489,
    "EPHEMERIS_TYPE": 0,
    "CLASSIFICATION_TYPE": "U",
    "NORAD_CAT_ID": 59766,
    "ELEMENT_SET_NO": 999,
    "REV_AT_EPOCH": 8487,
    "BSTAR": 0.00011582000000000001,
    "MEAN_MOTION_DOT": 3.072e-05,
    "MEAN_MOTION_DDOT": 0.0,
    "TLE_LINE1": "1 59766U 24091P   25314.99883279  .00003072  00000+0  11582-3 0  9990",
    "TLE_LINE2": "2 59766  53.1598 215.2681 0001447  93.0677 267.0489 15.30197650 84879",
    "COMMENT": "Grouped by shell and plane from TLE"
  },
  {
    "OBJECT_NAME": "STARLINK-31828",
    "OBJECT_ID": "24091Q",
    "EPOCH": "2025-11-11T03:28:36.909696",
    "MEAN_MOTION": 15.30197286,
    "ECCENTRICITY": 0.0001482,
    "INCLINATION": 53.1616,
    "RA_OF_ASC_NODE": 217.5832,
    "ARG_OF_PERICENTER": 80.7869,
    "MEAN_ANOMALY": 279.33,
    "EPHEMERIS_TYPE": 0,
    "CLASSIFICATION_TYPE": "U",
    "NORAD_CAT_ID": 59767,
    "ELEMENT_SET_NO": 999,
    "REV_AT_EPOCH": 8485,
    "BSTAR": 9.3734e-05,
    "MEAN_MOTION_DOT": 2.418e-05,
    "MEAN_MOTION_DDOT": 0.0,
    "TLE_LINE1": "1 59767U 24091Q   25315.14487164  .00002418  00000+0  93734-4 0  9995",
    "TLE_LINE2": "2 59767  53.1616 217.5832 0001482  80.7869 279.3300 15.30197286 84850",
    "COMMENT": "Grouped by shell and plane from TLE"
  },
  {
    "OBJECT_NAME": "STARLINK-31826",
    "OBJECT_ID": "24091R",
    "EPOCH": "2025-11-11T03:33:10.579104",
    "MEAN_MOTION": 15.30199641,
    "ECCENTRICITY": 0.0001469,
    "INCLINATION": 53.1599,
    "RA_OF_ASC_NODE": 217.607,
    "ARG_OF_PERICENTER": 61.7749,
    "MEAN_ANOMALY": 298.34,
    "EPHEMERIS_TYPE": 0,
    "CLASSIFICATION_TYPE": "U",
    "NORAD_CAT_ID": 59768,
    "ELEMENT_SET_NO": 999,
    "REV_AT_EPOCH": 8485,
    "BSTAR": 0.00011676,
    "MEAN_MOTION_DOT": 3.1e-05,
    "MEAN_MOTION_DDOT": 0.0,
    "TLE_LINE1": "1 59768U 24091R   25315.14803911  .00003100  00000+0  11676-3 0  9991",
    "TLE_LINE2": "2 59768  53.1599 217.6070 0001469  61.7749 298.3400 15.30199641 84856",
    "COMMENT": "Grouped by shell and plane from TLE"
  },
  {
    "OBJECT_NAME": "STARLINK-31830",
    "OBJECT_ID": "24091S",
    "EPOCH": "2025-11-11T03:37:46.122528",
    "MEAN_MOTION": 15.30174446,
    "ECCENTRICITY": 9.12e-05,
    "INCLINATION": 53.158,
    "RA_OF_ASC_NODE": 217.6267,
    "ARG_OF_PERICENTER": 79.8086,
    "MEAN_ANOMALY": 280.3018,
    "EPHEMERIS_TYPE": 0,
    "CLASSIFICATION_TYPE": "U",
    "NORAD_CAT_ID": 59769,
    "ELEMENT_SET_NO": 999,
    "REV_AT_EPOCH": 8485,
    "BSTAR": 0.0,
    "MEAN_MOTION_DOT": -1.9e-05,
    "MEAN_MOTION_DDOT": 0.0,
    "TLE_LINE1": "1 59769U 24091S   25315.15122827 -.00001900  00000+0 -52101-4 0  9990",
    "TLE_LINE2": "2 59769  53.1580 217.6267 0000912  79.8086 280.3018 15.30174446 84853",
    "COMMENT": "Grouped by shell and plane from TLE"
  },
  {
    "OBJECT_NAME": "STARLINK-31829",
    "OBJECT_ID": "24091T",
    "EPOCH": "2025-11-11T03:24:03.158208",
    "MEAN_MOTION": 15.30202324,
    "ECCENTRICITY": 0.0001329,
    "INCLINATION": 53.1616,
    "RA_OF_ASC_NODE": 217.5722,
    "ARG_OF_PERICENTER": 92.1477,
    "MEAN_ANOMALY": 267.9676,
    "EPHEMERIS_TYPE": 0,
    "CLASSIFICATION_TYPE": "U",
    "NORAD_CAT_ID": 59770,
    "ELEMENT_SET_NO": 999,
    "REV_AT_EPOCH": 8485,
    "BSTAR": 8.351700000000001e-05,
    "MEAN_MOTION_DOT": 2.115e-05,
    "MEAN_MOTION_DDOT": 0.0,
    "TLE_LINE1": "1 59770U 24091T   25315.14170322  .00002115  00000+0  83517-4 0  9996",
    "TLE_LINE2": "2 59770  53.1616 217.5722 0001329  92.1477 267.9676 15.30202324 84853",
    "COMMENT": "Grouped by shell and plane from TLE"
  },
  {
    "OBJECT_NAME": "STARLINK-31786",
    "OBJECT_ID": "24091U",
    "EPOCH": "2025-11-11T03:43:48.249984",
    "MEAN_MOTION": 15.30205491,
    "ECCENTRICITY": 0.0001464,
    "INCLINATION": 53.1614,
    "RA_OF_ASC_NODE": 217.6535,
    "ARG_OF_PERICENTER": 86.969,
    "MEAN_ANOMALY": 273.1478,
    "EPHEMERIS_TYPE": 0,
    "CLASSIFICATION_TYPE": "U",
    "NORAD_CAT_ID": 59771,
    "ELEMENT_SET_NO": 999,
    "REV_AT_EPOCH": 8485,
    "BSTAR": 8.216e-05,
    "MEAN_MOTION_DOT": 2.075e-05,
    "MEAN_MOTION_DDOT": 0.0,
    "TLE_LINE1": "1 59771U 24091U   25315.15541956  .00002075  00000+0  82160-4 0  9991",
    "TLE_LINE2": "2 59771  53.1614 217.6535 0001464  86.9690 273.1478 15.30205491 84850",
    "COMMENT": "Grouped by shell and plane from TLE"
  },
  {
    "OBJECT_NAME": "STARLINK-31835",
    "OBJECT_ID": "24091V",
    "EPOCH": "2025-11-11T03:19:29.944128",
    "MEAN_MOTION": 15.30200797,
    "ECCENTRICITY": 0.0001443,
    "INCLINATION": 53.1609,
    "RA_OF_ASC_NODE": 217.5424,
    "ARG_OF_PERICENTER": 79.5878,
    "MEAN_ANOMALY": 280.5285,
    "EPHEMERIS_TYPE": 0,
    "CLASSIFICATION_TYPE": "U",
    "NORAD_CAT_ID": 59772,
    "ELEMENT_SET_NO": 999,
    "REV_AT_EPOCH": 8485,
    "BSTAR": 3.6998e-05,
    "MEAN_MOTION_DOT": 7.37e-06,
    "MEAN_MOTION_DDOT": 0.0,
    "TLE_LINE1": "1 59772U 24091V   25315.13854102  .00000737  00000+0  36998-4 0  9991",
    "TLE_LINE2": "2 59772  53.1609 217.5424 0001443  79.5878 280.5285 15.30200797 84856",
    "COMMENT": "Grouped by shell and plane from TLE"
  },
  {
    "OBJECT_NAME": "STARLINK-31925",
    "OBJECT_ID": "24097F",
    "EPOCH": "2025-11-11T08:00:03.000384",
    "MEAN_MOTION": 15.47777052,
    "ECCENTRICITY": 0.001814,
    "INCLINATION": 42.9994,
    "RA_OF_ASC_NODE": 217.654,
    "ARG_OF_PERICENTER": 216.4165,
    "MEAN_ANOMALY": 194.7335,
    "EPHEMERIS_TYPE": 0,
    "CLASSIFICATION_TYPE": "U",
    "NORAD_CAT_ID": 59840,
    "ELEMENT_SET_NO": 999,
    "REV_AT_EPOCH": 590,
    "BSTAR": 0.0011665,
    "MEAN_MOTION_DOT": 0.00062553,
    "MEAN_MOTION_DDOT": 0.0,
    "TLE_LINE1": "1 59840U 24097F   25315.33336806  .00062553  00000+0  11665-2 0  9997",
    "TLE_LINE2": "2 59840  42.9994 217.6540 0018140 216.4165 194.7335 15.47777052  5900",
    "COMMENT": "Grouped by shell and plane from TLE"
  },
  {
    "OBJECT_NAME": "STARLINK-31852",
    "OBJECT_ID": "24097G",
    "EPOCH": "2025-11-11T03:04:34.555008",
    "MEAN_MOTION": 15.27585641,
    "ECCENTRICITY": 0.0002086,
    "INCLINATION": 43.0066,
    "RA_OF_ASC_NODE": 217.0665,
    "ARG_OF_PERICENTER": 265.5525,
    "MEAN_ANOMALY": 94.5088,
    "EPHEMERIS_TYPE": 0,
    "CLASSIFICATION_TYPE": "U",
    "NORAD_CAT_ID": 59841,
    "ELEMENT_SET_NO": 999,
    "REV_AT_EPOCH": 8386,
    "BSTAR": 0.00021223000000000002,
    "MEAN_MOTION_DOT": 5.583e-05,
    "MEAN_MOTION_DDOT": 0.0,
    "TLE_LINE1": "1 59841U 24097G   25315.12817772  .00005583  00000+0  21223-3 0  9993",
    "TLE_LINE2": "2 59841  43.0066 217.0665 0002086 265.5525  94.5088 15.27585641 83864",
    "COMMENT": "Grouped by shell and plane from TLE"
  },
  {
    "OBJECT_NAME": "STARLINK-31903",
    "OBJECT_ID": "24097L",
    "EPOCH": "2025-11-11T02:49:47.096544",
    "MEAN_MOTION": 15.27595185,
    "ECCENTRICITY": 8.09e-05,
    "INCLINATION": 43.002,
    "RA_OF_ASC_NODE": 216.9909,
    "ARG_OF_PERICENTER": 252.7639,
    "MEAN_ANOMALY": 107.3124,
    "EPHEMERIS_TYPE": 0,
    "CLASSIFICATION_TYPE": "U",
    "NORAD_CAT_ID": 59845,
    "ELEMENT_SET_NO": 999,
    "REV_AT_EPOCH": 8386,
    "BSTAR": 0.0,
    "MEAN_MOTION_DOT": -1.756e-05,
    "MEAN_MOTION_DDOT": 0.0,
    "TLE_LINE1": "1 59845U 24097L   25315.11790621 -.00001756  00000+0 -54289-4 0  9998",
    "TLE_LINE2": "2 59845  43.0020 216.9909 0000809 252.7639 107.3124 15.27595185 83860",
    "COMMENT": "Grouped by shell and plane from TLE"
  },
  {
    "OBJECT_NAME": "STARLINK-31859",
    "OBJECT_ID": "24097P",
    "EPOCH": "2025-11-11T01:24:54.073152",
    "MEAN_MOTION": 15.27573306,
    "ECCENTRICITY": 5.36e-05,
    "INCLINATION": 43.0022,
    "RA_OF_ASC_NODE": 217.411,
    "ARG_OF_PERICENTER": 290.5563,
    "MEAN_ANOMALY": 69.5232,
    "EPHEMERIS_TYPE": 0,
    "CLASSIFICATION_TYPE": "U",
    "NORAD_CAT_ID": 59848,
    "ELEMENT_SET_NO": 999,
    "REV_AT_EPOCH": 8385,
    "BSTAR": 0.0,
    "MEAN_MOTION_DOT": -7.1e-06,
    "MEAN_MOTION_DDOT": 0.0,
    "TLE_LINE1": "1 59848U 24097P   25315.05895918 -.00000710  00000+0 -16295-4 0  9993",
    "TLE_LINE2": "2 59848  43.0022 217.4110 0000536 290.5563  69.5232 15.27573306 83857",
    "COMMENT": "Grouped by shell and plane from TLE"
  },
  {
    "OBJECT_NAME": "STARLINK-31882",
    "OBJECT_ID": "24097W",
    "EPOCH": "2025-11-11T01:19:19.879680",
    "MEAN_MOTION": 15.27582968,
    "ECCENTRICITY": 7.73e-05,
    "INCLINATION": 43.0024,
    "RA_OF_ASC_NODE": 217.3707,
    "ARG_OF_PERICENTER": 288.1761,
    "MEAN_ANOMALY": 71.9007,
    "EPHEMERIS_TYPE": 0,
    "CLASSIFICATION_TYPE": "U",
    "NORAD_CAT_ID": 59855,
    "ELEMENT_SET_NO": 999,
    "REV_AT_EPOCH": 8385,
    "BSTAR": 0.00013713,
    "MEAN_MOTION_DOT": 3.514e-05,
    "MEAN_MOTION_DDOT": 0.0,
    "TLE_LINE1": "1 59855U 24097W   25315.05509120  .00003514  00000+0  13713-3 0  9992",
    "TLE_LINE2": "2 59855  43.0024 217.3707 0000773 288.1761  71.9007 15.27582968 83855",
    "COMMENT": "Grouped by shell and plane from TLE"
  }
]